STARLINK-3051
1 49157U 21082AD  26061.02857972  .00002967  00000+0  21806-3 0  9997
2 49157  69.9971 291.2833 0006426 268.9178  91.1248 15.04557258246487
